0 COSMOS 2251 DEB
1 34946U 93036ADZ 13281.86633426  .00000747  00000-0  20839-3 0  4077
2 34946 074.0243 084.9489 0065012 239.1104 120.3633 14.46890834236909
0 COSMOS 2251 DEB
1 34946U 93036ADZ 13283.80230139  .00001122  00000-0  30073-3 0  4087
2 34946 074.0262 081.3231 0065148 235.7685 123.7783 14.46900146236172
0 COSMOS 2251 DEB
1 34946U 93036ADZ 13285.73826575  .00000857  00000-0  23778-3 0  4107
2 34946 074.0242 077.7061 0065314 231.3476 128.2107 14.46900429237462
0 COSMOS 2251 DEB
1 34946U 93036ADZ 13287.12108747  .00000920  00000-0  25447-3 0  4113
2 34946 074.0260 075.1234 0065619 227.7949 131.8158 14.46905206237664
0 COSMOS 2251 DEB
1 34946U 93036ADZ 13288.08904928  .00000957  00000-0  26420-3 0  4127
2 34946 074.0249 073.3102 0065923 225.7694 133.8122 14.46908340237809
0 COSMOS 2251 DEB
1 34946U 93036ADZ 13290.09413934  .00001016  00000-0  28007-3 0  4134
2 34946 074.0262 069.5649 0065533 220.2388 139.4338 14.46914316238097
0 COSMOS 2251 DEB
1 34946U 93036ADZ 13290.71638788  .00001846  00000-0  49481-3 0  4140
2 34946 074.0270 068.3924 0064853 221.3880 138.2833 14.46927874237170
0 COSMOS 2251 DEB
1 34946U 93036ADZ 13292.09921096  .00001097  00000-0  30185-3 0  4149
2 34946 074.0267 065.8161 0065661 217.2984 142.4043 14.46921311238382
0 COSMOS 2251 DEB
1 34946U 93036ADZ 13293.06716803  .00001195  00000-0  32764-3 0  4150
2 34946 074.0276 064.0001 0066804 213.0612 146.7157 14.46926757238526
0 COSMOS 2251 DEB
1 34946U 93036ADZ 13294.03511865  .00001272  00000-0  34828-3 0  4169
2 34946 074.0258 062.1872 0066491 212.4136 147.3516 14.46931514238665
0 COSMOS 2251 DEB
1 34946U 93036ADZ 13295.07220765  .00001353  00000-0  36995-3 0  4178
2 34946 074.0265 060.2513 0066616 209.0613 150.7203 14.46936529238814
